ONEWEB-0228             
1 48780U 21045P   23305.90342236 -.00000084  00000+0 -25827-3 0  9991
2 48780  87.8959  89.9640 0001507  89.2521 270.8782 13.15548714118330
